EUCROPIS                
1 43807U 18099BB  26068.71628115  .00008636  00000+0  41486-3 0  9990
2 43807  97.4349 126.0391 0003982 286.1281  73.9515 15.19070978397356
STARLINK-1063           
1 44768U 19074BH  26068.75225384 -.00812325  00000+0 -29858-1 0  9993
2 44768  53.1603 219.1040 0001219  60.1573 299.9548 15.29959368348324
